#aV2024  9 18  0  0  0.00000000     288 DD+AD WGS84 FIT  NGA
## 2332 259200.00000000   300.00000000 60571 0.0000000000000
+   31     2  3  4  5  6  7  8  9 10 11 12 13 14 15 16 17 18
+         19 20 21 22 23 24 25 26 27 28 29 30 31 32  0  0  0
+          0  0  0  0  0  0  0  0  0  0  0  0  0  0  0  0  0
+          0  0  0  0  0  0  0  0  0  0  0  0  0  0  0  0  0
+          0  0  0  0  0  0  0  0  0  0  0  0  0  0  0  0  0
++         2  2  2  2  2  2  2  2  2  2  2  2  2  2  2  2  2
++         2  2  2  2  2  2  2  2  2  2  2  2  2  2  0  0  0
++         0  0  0  0  0  0  0  0  0  0  0  0  0  0  0  0  0
++         0  0  0  0  0  0  0  0  0  0  0  0  0  0  0  0  0
++         0  0  0  0  0  0  0  0  0  0  0  0  0  0  0  0  0
%c cc cc ccc ccc cccc cccc cccc cccc ccccc ccccc ccccc ccccc
%c cc cc ccc ccc cccc cccc cccc cccc ccccc ccccc ccccc ccccc
%f  0.0000000  0.000000000  0.00000000000  0.000000000000000
%f  0.0000000  0.000000000  0.00000000000  0.000000000000000
%i    0    0    0    0      0      0      0      0         0
%i    0    0    0    0      0      0      0      0         0
/*      NGA, ST. LOUIS,MO.                                  
/*   EPHEMERIS COMPUTED FROM 2 DAYS OF DATA                 
/*   EPOCHA v9 SMOOTHER                                     
/*   G2296 IERS2010 SATIGS SATAPC                           
*  2024  9 18  1 40  0.00000000
P  2   7553.349492 -18440.162057 -16921.827317   -355.825137                    
V  2  20151.551892 -10239.622557  19935.510977      0.079815                    
P  3  -5927.344386 -18437.646251 -18393.338942    541.378163                    
V  3  19735.151815  11685.192127 -18132.461553      0.131888                    
P  4    457.768732 -26347.320033   2639.881805    445.655590                    
V  4   3051.750283  -3094.901731 -31721.479845      0.070726                    
P  5 -10510.158722  10932.342410  21627.704660   -186.941837                    
V  5 -23923.447429 -14274.639758  -4307.628053     -0.012656                    
P  6 -23852.728040   3514.854425 -11196.213477     23.519019                    
V  6  12092.504117  -7680.877858 -27904.813917     -0.261997                    
P  7 -11033.113068 -11749.567075  21690.950671    -36.635620                    
V  7  23302.133178 -12181.078412   4932.350699      0.044276                    
P  8   6799.743965 -23756.646817   9016.935283    356.074375                    
V  8   3029.355792  11806.526784  28891.349660      0.128412                    
P  9  -7904.823726 -22198.151935  12102.151882    361.038747                    
V  9   2861.864587 -15469.440713 -26362.457661      0.160869                    
P 10  23757.580929   9752.804530  -7218.055486   -128.760882                    
V 10   6909.366327   6518.186484  30318.820895     -0.124175                    
P 11 -23047.997420  12771.954549   3068.514591   -735.725589                    
V 11  -4619.965134   -836.089929 -31608.688498     -0.041115                    
P 12   1030.109871  18024.823885 -19774.663344   -538.830538                    
V 12 -20267.898270 -13793.578378 -13781.210260     -0.028000                    
P 13 -13332.731376  17763.084267  14157.529997    677.042649                    
V 13   1493.163580 -18499.175440  24459.098782      0.020080                    
P 14 -23251.907342 -12522.194190  -3768.430008    497.971260                    
V 14  -2249.739167  -5262.486313  30768.987198      0.085309                    
P 15  -3427.148465  24783.669066   8142.871177    205.516930                    
V 15  -4711.627135 -10696.426102  28913.643446      0.043868                    
P 16  15375.962690  -6193.541902  20509.089658   -178.179388                    
V 16  20632.758745  16982.190100  -9738.235347      0.101560                    
P 17 -13707.972019  -7631.581154 -20985.639898    623.618290                    
V 17   3828.731822 -27388.002085   7480.038244     -0.114589                    
P 18  11256.983963  10780.395743  21558.647180   -653.930414                    
V 18 -24325.083118  12274.528777   6351.803480     -0.021339                    
P 19 -15383.824362   1178.158918 -21730.933639    539.436312                    
V 19   3709.139547 -27015.037865  -4534.479506      0.048799                    
P 20 -19726.674598   4860.308774  17095.531423    370.532935                    
V 20 -19238.564816 -10118.307158 -19548.133087     -0.003960                    
P 21  12458.463826 -18617.246115 -12985.190434    101.545972                    
V 21  16504.321529  -6792.584784  25847.047685     -0.007466                    
P 22 -22452.591173  -7557.870947 -11288.135636    -62.885203                    
V 22 -10164.435460 -11464.266054  27214.296822     -0.037231                    
P 23  20242.578420  16540.372051   5357.092985    322.511619                    
V 23  -6738.953377  -1837.412948  31086.422713      0.083762                    
P 24  -8463.648543  19539.732287 -16062.732449   -486.590813                    
V 24 -18069.537088   8566.928580  20925.375109      0.003733                    
P 25  13640.184659  19250.485845 -12794.989067    499.625922                    
V 25 -14485.395585  -6301.601696 -25352.496083      0.000154                    
P 26  23258.774065   1527.246484  12912.216344     76.498632                    
V 26  13313.561031  10271.441675 -24508.885019     -0.086003                    
P 27  12591.936550 -15470.383594  17028.887178    -33.874254                    
V 27   1117.732171  22431.422236  19638.768840     -0.000995                    
P 28  23003.720152  -2253.798615 -13100.722924   -415.016381                    
V 28 -13474.836823   9964.350581 -25395.597512     -0.138145                    
P 29   3998.505657  24095.956160  10237.443175   -577.161778                    
V 29  -3997.381312  12684.949333 -28300.131965      0.024776                    
P 30 -20007.252403  -4051.310484  17279.252171   -319.298072                    
V 30  18365.424703 -11586.227637  18446.618285      0.071572                    
P 31  24644.227190 -10299.844305  -2046.789315   -224.566834                    
V 31   -910.986029   3390.389015 -31233.117810      0.004684                    
P 32  14521.575018   6090.940738 -21202.242977   -596.124329                    
V 32  -1635.888038  27343.974839   6468.636083      0.037012                    
EOF
